HELIOS 2A               
1 28492U 04049A   22338.44755244  .00001767  00000+0  17306-3 0  9995
2 28492  98.2549 289.6093 0012724 241.8506 118.1409 14.93645737960494
SPIRALE A               
1 33751U 09008C   22338.43890257  .00000135  00000+0  48321-3 0  9991
2 33751   2.0771  92.4879 5457842 208.5674 105.2431  4.58891272202628
SPIRALE B               
1 33752U 09008D   22338.17564822  .00001509  00000+0  60506-3 0  9994
2 33752   2.2103  26.0517 6837619 331.8512   4.0523  2.83472664129888
SAPPHIRE                
1 39088U 13009C   22338.49015857  .00000067  00000+0  38796-4 0  9997
2 39088  98.4166 169.9501 0012258 127.9294 232.3001 14.34347092511495
